GALAXY 33 (G-33)        
1 54026U 22128A   26169.65463766  .00000073  00000+0  00000+0 0  9997
2 54026   0.0170  41.7539 0001644  41.3254 286.4803  1.00269650 13756
GALAXY 34 (G-34)        
1 54027U 22128B   26169.64307292  .00000052  00000+0  00000+0 0  9995
2 54027   0.0104  30.3042 0001513  67.6466 271.4326  1.00274211 13920
ANGOSAT 2               
1 54033U 22131A   26168.61616823  .00000130  00000+0  00000+0 0  9992
2 54033   0.0320  83.0963 0000715  28.7776  38.8139  1.00272126 13480
EUTELSAT HOTBIRD 13F    
1 54048U 22134A   26169.84074786  .00000081  00000+0  00000+0 0  9998
2 54048   0.0494 294.8845 0002093  61.5393 226.3298  1.00271345 13392
LDPE-2                  
1 54219U 22144A   26169.61433691  .00000119  00000+0  00000+0 0  9990
2 54219   5.6174  63.6428 0001836 101.6875 166.5333  1.00532955 11853
EUTELSAT HOTBIRD 13G    
1 54225U 22146A   26169.84074730  .00000081  00000+0  00000+0 0  9997
2 54225   0.0479 229.6231 0001927 314.1357  38.9820  1.00270555  7482
ZHONGXING-19            
1 54230U 22148A   26169.78462389 -.00000088  00000+0  00000+0 0  9997
2 54230   0.0176  19.7991 0002357  91.2955 241.5788  1.00271585 13394
GALAXY 31 (G-31)        
1 54243U 22153A   26169.65706434  .00000007  00000+0  00000+0 0  9995
2 54243   0.0174  73.8851 0001089   4.3963 304.1396  1.00271570  7148
GALAXY 32 (G-32)        
1 54244U 22153B   26169.59166903 -.00000181  00000+0  00000+0 0  9994
2 54244   0.0111  25.1390 0002080   9.2508 354.4398  1.00271685 13154
EUTELSAT 10B            
1 54259U 22157A   26169.82556692  .00000061  00000+0  00000+0 0  9994
2 54259   0.0648  97.2896 0001148  11.9512 105.0019  1.00265718 13043
GALAXY 35 (G-35)        
1 54741U 22170A   26169.80507730 -.00000169  00000+0  00000+0 0  9992
2 54741   0.0140  47.9522 0001813  35.6252  20.1755  1.00271957 12918
GALAXY 36 (G-36)        
1 54742U 22170B   26169.80585730 -.00000192  00000+0  00000+0 0  9995
2 54742   0.0071 305.4739 0002476 137.7403  24.9305  1.00272628 12797
METEOSAT-12 (MTG-I1)    
1 54743U 22170C   26169.82357359 -.00000014  00000+0  00000+0 0  9995
2 54743   0.7406  23.2950 0003242  71.0245 108.8204  1.00273080 12998
SHIJIAN-23 (SJ-23)      
1 55131U 23002A   26168.72928037 -.00000260  00000+0  00000+0 0  9990
2 55131   3.7196  78.3065 0003809 272.9008 325.0641  1.00087498 12517
APSTAR-6E               
1 55239U 23005A   26169.69134051 -.00000324  00000+0  00000+0 0  9995
2 55239   0.0387 247.7467 0000913 297.0745 104.9723  1.00270657 18708
USA 342                 
1 55263U 23008A   26166.33502449  .00000142  00000+0  00000+0 0  9990
2 55263   0.0090  64.0068 0000187 223.8693 120.1932  1.00270392 12493
LDPE-3A                 
1 55264U 23008B   26169.65827770  .00000059  00000+0  00000+0 0  9993
2 55264   2.3526  81.6461 0001137  60.6683 246.5610  0.99145044 11821
ELEKTRO-L 4             
1 55506U 23016A   26168.80039480 -.00000064  00000+0  00000+0 0  9997
2 55506   0.0743 161.5596 0000829  14.1788 184.2516  1.00270799 12340
AMAZONAS NEXUS          
1 55508U 23017A   26169.52633323 -.00000289  00000+0  00000+0 0  9995
2 55508   0.0374  36.3998 0005221  35.4429 323.4129  1.00275843  7050
ZHONGXING-26            
1 55686U 23023A   26169.80316922 -.00000360  00000+0  00000+0 0  9993
2 55686   0.0695  70.8286 0003389  15.8874 234.5879  1.00269988 12249
LUCH-5X (OLYMP-K 2)     
1 55841U 23031A   26168.76651992  .00000028  00000+0  00000+0 0  9998
2 55841   0.0237  60.4476 0000684 145.7824  37.7201  1.00272450 11949
GAOFEN-13 02            
1 55912U 23036A   26169.78167721 -.00000225  00000+0  00000+0 0  9997
2 55912   1.0211   1.3811 0004060 336.1446 359.1836  1.00270232 12106
SES-18                  
1 55970U 23038A   26169.62130794 -.00000107  00000+0  00000+0 0  9995
2 55970   0.0169 299.6964 0000121 324.7472 122.9796  1.00271473 12118
SES-19                  
1 55971U 23038B   26169.65429101  .00000081  00000+0  00000+0 0  9992
2 55971   0.0140  23.7067 0001461  59.6363 284.1908  1.00272132 12107
INTELSAT 40E (IS-40E)   
1 56174U 23052A   26169.62483850 -.00000180  00000+0  00000+0 0  9993
2 56174   0.0142  44.4220 0001944  81.4139 274.9633  1.00271281 11831
VIASAT-3 F1             
1 56370U 23060A   26169.80603065  .00000000  00000+0  00000+0 0  9992
2 56370   0.0244 348.3269 0001035  90.7537  29.1751  1.00270504 11453
ARCTURUS                
1 56371U 23060B   26169.78546810 -.00000070  00000+0  00000+0 0  9992
2 56371   2.7793  79.9344 0002601  51.4680 130.8872  1.00272377 11472
GS-1                    
1 56372U 23060C   26169.72235684 -.00000232  00000+0  00000+0 0  9991
2 56372   2.7297  79.8139 0003742 281.5832 255.0259  1.00274169  7559
BEIDOU-3 G4             
1 56564U 23066A   26169.77994387 -.00000287  00000+0  00000+0 0  9997
2 56564   0.4847 331.9614 0004388 179.9602 175.9126  1.00273239 11409
ARABSAT-7B (BADR-8)     
1 56757U 23075A   26169.85065851  .00000138  00000+0  00000+0 0  9999
2 56757   0.0755  28.4177 0004626 354.7193 216.1908  1.00273633 11136
NVS-01 (IRNSS-1J)       
1 56759U 23076A   26169.83170633 -.00000343  00000+0  00000+0 0  9994
2 56759   2.1613 244.2669 0003094  35.8627  55.7560  1.00264102 11137
